{
  "type": "FeatureCollection",
  "features": [
    {
      "type": "Feature",
      "properties": {
        "norad_id": 40069,
        "name": "METEOR-M 2",
        "group": "weather",
        "lat": 62.96620880693811,
        "lon": -44.959564306764236,
        "alt_km": 816.4312052796904,
        "timestamp": "2025-12-20T18:51:31.360760+00:00",
        "meta_object_name": "METEOR-M 2",
        "meta_object_id": "2014-037A",
        "meta_epoch": "2025-12-20T13:29:20.247360",
        "meta_mean_motion": 14.21389908,
        "meta_eccentricity": 0.00053766,
        "meta_inclination": 98.4901,
        "meta_ra_of_asc_node": 331.8466,
        "meta_arg_of_pericenter": 185.0281,
        "meta_mean_anomaly": 175.0844,
        "meta_ephemeris_type": 0,
        "meta_classification_type": "U",
        "meta_norad_cat_id": 40069,
        "meta_element_set_no": 999,
        "meta_rev_at_epoch": 59394,
        "meta_bstar": 0.00014851454,
        "meta_mean_motion_dot": 2.82e-06,
        "meta_mean_motion_ddot": 0,
        "tle_line1": "1 40069U 14037A   25354.56203990  .00000282  00000+0  14851-3 0  9990",
        "tle_line2": "2 40069  98.4901 331.8466 0005376 185.0281 175.0844 14.21389908593943"
      },
      "geometry": {
        "type": "Point",
        "coordinates": [
          -44.959564306764236,
          62.96620880693811
        ]
      }
    },
    {
      "type": "Feature",
      "properties": {
        "norad_id": 40267,
        "name": "HIMAWARI-8",
        "group": "weather",
        "lat": 0.016464262888476286,
        "lon": 153.14747068556767,
        "alt_km": 35789.22779811085,
        "timestamp": "2025-12-20T18:51:31.360773+00:00",
        "meta_object_name": "HIMAWARI-8",
        "meta_object_id": "2014-060A",
        "meta_epoch": "2025-12-20T13:45:38.596032",
        "meta_mean_motion": 1.00271023,
        "meta_eccentricity": 8.7e-05,
        "meta_inclination": 0.0392,
        "meta_ra_of_asc_node": 138.1076,
        "meta_arg_of_pericenter": 157.5207,
        "meta_mean_anomaly": 140.8559,
        "meta_ephemeris_type": 0,
        "meta_classification_type": "U",
        "meta_norad_cat_id": 40267,
        "meta_element_set_no": 999,
        "meta_rev_at_epoch": 4096,
        "meta_bstar": 0,
        "meta_mean_motion_dot": -2.52e-06,
        "meta_mean_motion_ddot": 0,
        "tle_line1": "1 40267U 14060A   25354.57336338 -.00000252  00000+0  00000+0 0  9995",
        "tle_line2": "2 40267   0.0392 138.1076 0000870 157.5207 140.8559  1.00271023 40960"
      },
      "geometry": {
        "type": "Point",
        "coordinates": [
          153.14747068556767,
          0.016464262888476286
        ]
      }
    },
    {
      "type": "Feature",
      "properties": {
        "norad_id": 40367,
        "name": "FENGYUN 2G",
        "group": "weather",
        "lat": 3.1265941127852894,
        "lon": 111.63871929373899,
        "alt_km": 35799.66796315947,
        "timestamp": "2025-12-20T18:51:31.360785+00:00",
        "meta_object_name": "FENGYUN 2G",
        "meta_object_id": "2014-090A",
        "meta_epoch": "2025-12-20T15:39:42.836832",
        "meta_mean_motion": 1.00261254,
        "meta_eccentricity": 0.00026778,
        "meta_inclination": 5.1873,
        "meta_ra_of_asc_node": 75.0072,
        "meta_arg_of_pericenter": 202.9642,
        "meta_mean_anomaly": 145.7137,
        "meta_ephemeris_type": 0,
        "meta_classification_type": "U",
        "meta_norad_cat_id": 40367,
        "meta_element_set_no": 999,
        "meta_rev_at_epoch": 4020,
        "meta_bstar": 0,
        "meta_mean_motion_dot": -2.79e-06,
        "meta_mean_motion_ddot": 0,
        "tle_line1": "1 40367U 14090A   25354.65257913 -.00000279  00000+0  00000+0 0  9998",
        "tle_line2": "2 40367   5.1873  75.0072 0002677 202.9642 145.7137  1.00261254 40209"
      },
      "geometry": {
        "type": "Point",
        "coordinates": [
          111.63871929373899,
          3.1265941127852894
        ]
      }
    },
    {
      "type": "Feature",
      "properties": {
        "norad_id": 40732,
        "name": "METEOSAT-11 (MSG-4)",
        "group": "weather",
        "lat": -2.111393711220676,
        "lon": 21.722241538008316,
        "alt_km": 35790.377948159374,
        "timestamp": "2025-12-20T18:51:31.360797+00:00",
        "meta_object_name": "METEOSAT-11 (MSG-4)",
        "meta_object_id": "2015-034A",
        "meta_epoch": "2025-12-20T06:25:40.200960",
        "meta_mean_motion": 1.00269846,
        "meta_eccentricity": 8.427e-05,
        "meta_inclination": 2.7549,
        "meta_ra_of_asc_node": 71.982,
        "meta_arg_of_pericenter": 136.1549,
        "meta_mean_anomaly": 346.5872,
        "meta_ephemeris_type": 0,
        "meta_classification_type": "U",
        "meta_norad_cat_id": 40732,
        "meta_element_set_no": 999,
        "meta_rev_at_epoch": 542,
        "meta_bstar": 0,
        "meta_mean_motion_dot": 8.3e-07,
        "meta_mean_motion_ddot": 0,
        "tle_line1": "1 40732U 15034A   25354.26782640  .00000083  00000+0  00000+0 0  9992",
        "tle_line2": "2 40732   2.7549  71.9820 0000842 136.1549 346.5872  1.00269846  5427"
      },
      "geometry": {
        "type": "Point",
        "coordinates": [
          21.722241538008316,
          -2.111393711220676
        ]
      }
    },
    {
      "type": "Feature",
      "properties": {
        "norad_id": 41105,
        "name": "ELEKTRO-L 2",
        "group": "weather",
        "lat": -6.028026904129113,
        "lon": -1.8547733239570963,
        "alt_km": 35783.054764316956,
        "timestamp": "2025-12-20T18:51:31.360809+00:00",
        "meta_object_name": "ELEKTRO-L 2",
        "meta_object_id": "2015-074A",
        "meta_epoch": "2025-12-20T01:10:35.962176",
        "meta_mean_motion": 1.00272605,
        "meta_eccentricity": 0.00035244,
        "meta_inclination": 6.243,
        "meta_ra_of_asc_node": 72.7416,
        "meta_arg_of_pericenter": 209.3855,
        "meta_mean_anomaly": 169.9333,
        "meta_ephemeris_type": 0,
        "meta_classification_type": "U",
        "meta_norad_cat_id": 41105,
        "meta_element_set_no": 999,
        "meta_rev_at_epoch": 3671,
        "meta_bstar": 0,
        "meta_mean_motion_dot": -9.8e-07,
        "meta_mean_motion_ddot": 0,
        "tle_line1": "1 41105U 15074A   25354.04902734 -.00000098  00000+0  00000+0 0  9992",
        "tle_line2": "2 41105   6.2430  72.7416 0003524 209.3855 169.9333  1.00272605 36715"
      },
      "geometry": {
        "type": "Point",
        "coordinates": [
          -1.8547733239570963,
          -6.028026904129113
        ]
      }
    },
    {
      "type": "Feature",
      "properties": {
        "norad_id": 41752,
        "name": "INSAT-3DR",
        "group": "weather",
        "lat": 0.026847649143797992,
        "lon": 86.48960030381299,
        "alt_km": 35845.79355845656,
        "timestamp": "2025-12-20T18:51:31.360821+00:00",
        "meta_object_name": "INSAT-3DR",
        "meta_object_id": "2016-054A",
        "meta_epoch": "2025-12-20T13:34:59.082240",
        "meta_mean_motion": 1.00271597,
        "meta_eccentricity": 0.00141301,
        "meta_inclination": 0.1108,
        "meta_ra_of_asc_node": 86.372,
        "meta_arg_of_pericenter": 185.2291,
        "meta_mean_anomaly": 95.5322,
        "meta_ephemeris_type": 0,
        "meta_classification_type": "U",
        "meta_norad_cat_id": 41752,
        "meta_element_set_no": 999,
        "meta_rev_at_epoch": 3402,
        "meta_bstar": 0,
        "meta_mean_motion_dot": -5.3e-07,
        "meta_mean_motion_ddot": 0,
        "tle_line1": "1 41752U 16054A   25354.56596160 -.00000053  00000+0  00000+0 0  9999",
        "tle_line2": "2 41752   0.1108  86.3720 0014130 185.2291  95.5322  1.00271597 34021"
      },
      "geometry": {
        "type": "Point",
        "coordinates": [
          86.48960030381299,
          0.026847649143797992
        ]
      }
    },
    {
      "type": "Feature",
      "properties": {
        "norad_id": 41836,
        "name": "HIMAWARI-9",
        "group": "weather",
        "lat": 0.02005875044637109,
        "lon": 153.24857281921066,
        "alt_km": 35791.587819971195,
        "timestamp": "2025-12-20T18:51:31.360833+00:00",
        "meta_object_name": "HIMAWARI-9",
        "meta_object_id": "2016-064A",
        "meta_epoch": "2025-12-20T07:03:06.614784",
        "meta_mean_motion": 1.00274531,
        "meta_eccentricity": 0.00015231,
        "meta_inclination": 0.0185,
        "meta_ra_of_asc_node": 0.0735,
        "meta_arg_of_pericenter": 346.3571,
        "meta_mean_anomaly": 349.2305,
        "meta_ephemeris_type": 0,
        "meta_classification_type": "U",
        "meta_norad_cat_id": 41836,
        "meta_element_set_no": 999,
        "meta_rev_at_epoch": 3341,
        "meta_bstar": 0,
        "meta_mean_motion_dot": 0,
        "meta_mean_motion_ddot": 0,
        "tle_line1": "1 41836U 16064A   25354.29382656  .00000000  00000+0  00000+0 0  9997",
        "tle_line2": "2 41836   0.0185   0.0735 0001523 346.3571 349.2305  1.00274531 33413"
      },
      "geometry": {
        "type": "Point",
        "coordinates": [
          153.24857281921066,
          0.02005875044637109
        ]
      }
    }
  ]
}